{
    "links": {
        "self": "http://www.neowsapp.com/rest/v1/neo/3611414?api_key=iIulBulltgU6a56xZRHN4H3l9WmuAYTsLGpBGhQ2"
    },
    "id": "3611414",
    "neo_reference_id": "3611414",
    "name": "(2012 UL)",
    "designation": "2012 UL",
    "nasa_jpl_url": "http://ssd.jpl.nasa.gov/sbdb.cgi?sstr=3611414",
    "absolute_magnitude_h": 25.9,
    "estimated_diameter": {
        "kilometers": {
            "estimated_diameter_min": 0.0175612318,
            "estimated_diameter_max": 0.0392681082
        },
        "meters": {
            "estimated_diameter_min": 17.561231848,
            "estimated_diameter_max": 39.2681081809
        },
        "miles": {
            "estimated_diameter_min": 0.0109120402,
            "estimated_diameter_max": 0.0244000636
        },
        "feet": {
            "estimated_diameter_min": 57.6155918963,
            "estimated_diameter_max": 128.8323800441
        }
    },
    "is_potentially_hazardous_asteroid": false,
    "close_approach_data": [
        {
            "close_approach_date": "1988-11-07",
            "close_approach_date_full": "1988-Nov-07 19:03",
            "epoch_date_close_approach": 594932580000,
            "relative_velocity": {
                "kilometers_per_second": "14.1703186168",
                "kilometers_per_hour": "51013.1470205182",
                "miles_per_hour": "31697.5857139436"
            },
            "miss_distance": {
                "astronomical": "0.2727584668",
                "lunar": "106.1030435852",
                "kilometers": "40804085.657745716",
                "miles": "25354483.1247182408"
            },
            "orbiting_body": "Earth"
        },
        {
            "close_approach_date": "2012-10-06",
            "close_approach_date_full": "2012-Oct-06 10:42",
            "epoch_date_close_approach": 1349520120000,
            "relative_velocity": {
                "kilometers_per_second": "6.0672616972",
                "kilometers_per_hour": "21842.142109855",
                "miles_per_hour": "13571.8576904263"
            },
            "miss_distance": {
                "astronomical": "0.026858035",
                "lunar": "10.447775615",
                "kilometers": "4017904.82838545",
                "miles": "2496610.29100121"
            },
            "orbiting_body": "Earth"
        },
        {
            "close_approach_date": "2101-11-13",
            "close_approach_date_full": "2101-Nov-13 20:12",
            "epoch_date_close_approach": 4161355920000,
            "relative_velocity": {
                "kilometers_per_second": "15.7144488581",
                "kilometers_per_hour": "56572.01588902",
                "miles_per_hour": "35151.6506505969"
            },
            "miss_distance": {
                "astronomical": "0.3241211692",
                "lunar": "126.0831348188",
                "kilometers": "48487836.534229604",
                "miles": "30128944.5246483752"
            },
            "orbiting_body": "Earth"
        }
    ],
    "orbital_data": {
        "orbit_id": "8",
        "orbit_determination_date": "2017-04-06 08:48:29",
        "first_observation_date": "2012-10-16",
        "last_observation_date": "2012-11-09",
        "data_arc_in_days": 24,
        "observations_used": 19,
        "orbit_uncertainty": "7",
        "minimum_orbit_intersection": ".0198769",
        "jupiter_tisserand_invariant": "3.956",
        "epoch_osculation": "2459000.5",
        "eccentricity": ".4336701858566541",
        "semi_major_axis": "1.795909873942366",
        "inclination": ".9341009607521525",
        "ascending_node_longitude": "235.5860616586537",
        "orbital_period": "879.0735929314681",
        "perihelion_distance": "1.01707730512798",
        "perihelion_argument": "127.0919245173742",
        "aphelion_distance": "2.574742442756753",
        "perihelion_time": "2458835.332220877290",
        "mean_anomaly": "67.63984376540274",
        "mean_motion": ".4095220273873764",
        "equinox": "J2000",
        "orbit_class": {
            "orbit_class_type": "AMO",
            "orbit_class_description": "Near-Earth asteroid orbits similar to that of 1221 Amor",
            "orbit_class_range": "1.017 AU < q (perihelion) < 1.3 AU"
        }
    },
    "is_sentry_object": false
}